KUIPER-00095            
1 65134U 25171C   25364.27622592  .00011246  00000+0  10142-2 0  9993
2 65134  51.8915  95.9038 0004463 254.5644 105.4832 14.95946745 22743
KUIPER-00096            
1 65135U 25171D   25364.32416048  .00004762  00000+0  65345-3 0  9998
2 65135  51.9010 104.8197 0009875 279.1868  80.7978 14.79901532 22620
KUIPER-00097            
1 65136U 25171E   25364.32153185  .00000485  00000+0  92911-4 0  9997
2 65136  51.9009 107.4472 0009717 280.9920  78.9949 14.79903921 22573
KUIPER-00098            
1 65137U 25171F   25363.71095499  .00007991  00000+0  10752-2 0  9993
2 65137  51.9002 112.5324 0007002 262.0230  97.9938 14.79953741 21809
KUIPER-00099            
1 65138U 25171G   25364.29577891  .00007468  00000+0  10068-2 0  9998
2 65138  51.9029  99.9132 0000366 122.9006 237.1992 14.79961367 22683
KUIPER-00100            
1 65139U 25171H   25364.33335648 -.00013204  00000+0 -17411-2 0  9992
2 65139  51.9000  97.1328 0000931 106.0479 313.8190 14.79091815  4735
KUIPER-00102            
1 65140U 25171J   25364.33335648 -.00003951  00000+0 -48924-3 0  9996
2 65140  51.8978  99.7813 0000816 116.0630 264.1229 14.79954871  4471
KUIPER-00103            
1 65141U 25171K   25364.27691134  .00008355  00000+0  11217-2 0  9990
2 65141  51.8990 117.5194 0005642 259.0074 101.0254 14.80000668 22430
