<?xml version="1.0" encoding="UTF-8"?>
<ndm xmlns:xsi="http://www.w3.org/2001/XMLSchema-instance" xsi:noNamespaceSchemaLocation="https://sanaregistry.org/r/ndmxml_unqualified/ndmxml-2.0.0-master-2.0.xsd">
<omm id="CCSDS_OMM_VERS" version="2.0">
<header><CREATION_DATE/><ORIGINATOR/></header><body><segment><metadata><OBJECT_NAME>KUIPER-00095</OBJECT_NAME><OBJECT_ID>2025-171C</OBJECT_ID><CENTER_NAME>EARTH</CENTER_NAME><REF_FRAME>TEME</REF_FRAME><TIME_SYSTEM>UTC</TIME_SYSTEM><MEAN_ELEMENT_THEORY>SGP4</MEAN_ELEMENT_THEORY></metadata><data><meanElements><EPOCH>2025-12-30T06:37:45.919488</EPOCH><MEAN_MOTION>14.95946745</MEAN_MOTION><ECCENTRICITY>.00044633</ECCENTRICITY><INCLINATION>51.8915</INCLINATION><RA_OF_ASC_NODE>95.9038</RA_OF_ASC_NODE><ARG_OF_PERICENTER>254.5644</ARG_OF_PERICENTER><MEAN_ANOMALY>105.4832</MEAN_ANOMALY></meanElements><tleParameters><EPHEMERIS_TYPE>0</EPHEMERIS_TYPE><CLASSIFICATION_TYPE>U</CLASSIFICATION_TYPE><NORAD_CAT_ID>65134</NORAD_CAT_ID><ELEMENT_SET_NO>999</ELEMENT_SET_NO><REV_AT_EPOCH>2274</REV_AT_EPOCH><BSTAR>.10141996E-2</BSTAR><MEAN_MOTION_DOT>.11246E-3</MEAN_MOTION_DOT><MEAN_MOTION_DDOT>0</MEAN_MOTION_DDOT></tleParameters></data></segment></body></omm>
<omm id="CCSDS_OMM_VERS" version="2.0">
<header><CREATION_DATE/><ORIGINATOR/></header><body><segment><metadata><OBJECT_NAME>KUIPER-00096</OBJECT_NAME><OBJECT_ID>2025-171D</OBJECT_ID><CENTER_NAME>EARTH</CENTER_NAME><REF_FRAME>TEME</REF_FRAME><TIME_SYSTEM>UTC</TIME_SYSTEM><MEAN_ELEMENT_THEORY>SGP4</MEAN_ELEMENT_THEORY></metadata><data><meanElements><EPOCH>2025-12-30T07:46:47.465472</EPOCH><MEAN_MOTION>14.79901532</MEAN_MOTION><ECCENTRICITY>.00098758</ECCENTRICITY><INCLINATION>51.9010</INCLINATION><RA_OF_ASC_NODE>104.8197</RA_OF_ASC_NODE><ARG_OF_PERICENTER>279.1868</ARG_OF_PERICENTER><MEAN_ANOMALY>80.7978</MEAN_ANOMALY></meanElements><tleParameters><EPHEMERIS_TYPE>0</EPHEMERIS_TYPE><CLASSIFICATION_TYPE>U</CLASSIFICATION_TYPE><NORAD_CAT_ID>65135</NORAD_CAT_ID><ELEMENT_SET_NO>999</ELEMENT_SET_NO><REV_AT_EPOCH>2262</REV_AT_EPOCH><BSTAR>.65344659E-3</BSTAR><MEAN_MOTION_DOT>.4762E-4</MEAN_MOTION_DOT><MEAN_MOTION_DDOT>0</MEAN_MOTION_DDOT></tleParameters></data></segment></body></omm>
<omm id="CCSDS_OMM_VERS" version="2.0">
<header><CREATION_DATE/><ORIGINATOR/></header><body><segment><metadata><OBJECT_NAME>KUIPER-00097</OBJECT_NAME><OBJECT_ID>2025-171E</OBJECT_ID><CENTER_NAME>EARTH</CENTER_NAME><REF_FRAME>TEME</REF_FRAME><TIME_SYSTEM>UTC</TIME_SYSTEM><MEAN_ELEMENT_THEORY>SGP4</MEAN_ELEMENT_THEORY></metadata><data><meanElements><EPOCH>2025-12-30T07:43:00.351840</EPOCH><MEAN_MOTION>14.79903921</MEAN_MOTION><ECCENTRICITY>.00097178</ECCENTRICITY><INCLINATION>51.9009</INCLINATION><RA_OF_ASC_NODE>107.4472</RA_OF_ASC_NODE><ARG_OF_PERICENTER>280.9920</ARG_OF_PERICENTER><MEAN_ANOMALY>78.9949</MEAN_ANOMALY></meanElements><tleParameters><EPHEMERIS_TYPE>0</EPHEMERIS_TYPE><CLASSIFICATION_TYPE>U</CLASSIFICATION_TYPE><NORAD_CAT_ID>65136</NORAD_CAT_ID><ELEMENT_SET_NO>999</ELEMENT_SET_NO><REV_AT_EPOCH>2257</REV_AT_EPOCH><BSTAR>.92911019E-4</BSTAR><MEAN_MOTION_DOT>.485E-5</MEAN_MOTION_DOT><MEAN_MOTION_DDOT>0</MEAN_MOTION_DDOT></tleParameters></data></segment></body></omm>
<omm id="CCSDS_OMM_VERS" version="2.0">
<header><CREATION_DATE/><ORIGINATOR/></header><body><segment><metadata><OBJECT_NAME>KUIPER-00098</OBJECT_NAME><OBJECT_ID>2025-171F</OBJECT_ID><CENTER_NAME>EARTH</CENTER_NAME><REF_FRAME>TEME</REF_FRAME><TIME_SYSTEM>UTC</TIME_SYSTEM><MEAN_ELEMENT_THEORY>SGP4</MEAN_ELEMENT_THEORY></metadata><data><meanElements><EPOCH>2025-12-29T17:03:46.511136</EPOCH><MEAN_MOTION>14.79953741</MEAN_MOTION><ECCENTRICITY>.0007002</ECCENTRICITY><INCLINATION>51.9002</INCLINATION><RA_OF_ASC_NODE>112.5324</RA_OF_ASC_NODE><ARG_OF_PERICENTER>262.0230</ARG_OF_PERICENTER><MEAN_ANOMALY>97.9938</MEAN_ANOMALY></meanElements><tleParameters><EPHEMERIS_TYPE>0</EPHEMERIS_TYPE><CLASSIFICATION_TYPE>U</CLASSIFICATION_TYPE><NORAD_CAT_ID>65137</NORAD_CAT_ID><ELEMENT_SET_NO>999</ELEMENT_SET_NO><REV_AT_EPOCH>2180</REV_AT_EPOCH><BSTAR>.10752436E-2</BSTAR><MEAN_MOTION_DOT>.7991E-4</MEAN_MOTION_DOT><MEAN_MOTION_DDOT>0</MEAN_MOTION_DDOT></tleParameters></data></segment></body></omm>
<omm id="CCSDS_OMM_VERS" version="2.0">
<header><CREATION_DATE/><ORIGINATOR/></header><body><segment><metadata><OBJECT_NAME>KUIPER-00099</OBJECT_NAME><OBJECT_ID>2025-171G</OBJECT_ID><CENTER_NAME>EARTH</CENTER_NAME><REF_FRAME>TEME</REF_FRAME><TIME_SYSTEM>UTC</TIME_SYSTEM><MEAN_ELEMENT_THEORY>SGP4</MEAN_ELEMENT_THEORY></metadata><data><meanElements><EPOCH>2025-12-30T07:05:55.297824</EPOCH><MEAN_MOTION>14.79961367</MEAN_MOTION><ECCENTRICITY>.00003666</ECCENTRICITY><INCLINATION>51.9029</INCLINATION><RA_OF_ASC_NODE>99.9132</RA_OF_ASC_NODE><ARG_OF_PERICENTER>122.9006</ARG_OF_PERICENTER><MEAN_ANOMALY>237.1992</MEAN_ANOMALY></meanElements><tleParameters><EPHEMERIS_TYPE>0</EPHEMERIS_TYPE><CLASSIFICATION_TYPE>U</CLASSIFICATION_TYPE><NORAD_CAT_ID>65138</NORAD_CAT_ID><ELEMENT_SET_NO>999</ELEMENT_SET_NO><REV_AT_EPOCH>2268</REV_AT_EPOCH><BSTAR>.10067741E-2</BSTAR><MEAN_MOTION_DOT>.7468E-4</MEAN_MOTION_DOT><MEAN_MOTION_DDOT>0</MEAN_MOTION_DDOT></tleParameters></data></segment></body></omm>
<omm id="CCSDS_OMM_VERS" version="2.0">
<header><CREATION_DATE/><ORIGINATOR/></header><body><segment><metadata><OBJECT_NAME>KUIPER-00100</OBJECT_NAME><OBJECT_ID>2025-171H</OBJECT_ID><CENTER_NAME>EARTH</CENTER_NAME><REF_FRAME>TEME</REF_FRAME><TIME_SYSTEM>UTC</TIME_SYSTEM><MEAN_ELEMENT_THEORY>SGP4</MEAN_ELEMENT_THEORY></metadata><data><meanElements><EPOCH>2025-12-30T08:00:01.999872</EPOCH><MEAN_MOTION>14.79091815</MEAN_MOTION><ECCENTRICITY>.00009318</ECCENTRICITY><INCLINATION>51.9000</INCLINATION><RA_OF_ASC_NODE>97.1328</RA_OF_ASC_NODE><ARG_OF_PERICENTER>106.0479</ARG_OF_PERICENTER><MEAN_ANOMALY>313.8190</MEAN_ANOMALY></meanElements><tleParameters><EPHEMERIS_TYPE>0</EPHEMERIS_TYPE><CLASSIFICATION_TYPE>U</CLASSIFICATION_TYPE><NORAD_CAT_ID>65139</NORAD_CAT_ID><ELEMENT_SET_NO>999</ELEMENT_SET_NO><REV_AT_EPOCH>473</REV_AT_EPOCH><BSTAR>-.17410977E-2</BSTAR><MEAN_MOTION_DOT>-.13204E-3</MEAN_MOTION_DOT><MEAN_MOTION_DDOT>0</MEAN_MOTION_DDOT></tleParameters></data></segment></body></omm>
<omm id="CCSDS_OMM_VERS" version="2.0">
<header><CREATION_DATE/><ORIGINATOR/></header><body><segment><metadata><OBJECT_NAME>KUIPER-00102</OBJECT_NAME><OBJECT_ID>2025-171J</OBJECT_ID><CENTER_NAME>EARTH</CENTER_NAME><REF_FRAME>TEME</REF_FRAME><TIME_SYSTEM>UTC</TIME_SYSTEM><MEAN_ELEMENT_THEORY>SGP4</MEAN_ELEMENT_THEORY></metadata><data><meanElements><EPOCH>2025-12-30T08:00:01.999872</EPOCH><MEAN_MOTION>14.79954871</MEAN_MOTION><ECCENTRICITY>.00008166</ECCENTRICITY><INCLINATION>51.8978</INCLINATION><RA_OF_ASC_NODE>99.7813</RA_OF_ASC_NODE><ARG_OF_PERICENTER>116.0630</ARG_OF_PERICENTER><MEAN_ANOMALY>264.1229</MEAN_ANOMALY></meanElements><tleParameters><EPHEMERIS_TYPE>0</EPHEMERIS_TYPE><CLASSIFICATION_TYPE>U</CLASSIFICATION_TYPE><NORAD_CAT_ID>65140</NORAD_CAT_ID><ELEMENT_SET_NO>999</ELEMENT_SET_NO><REV_AT_EPOCH>447</REV_AT_EPOCH><BSTAR>-.48923988E-3</BSTAR><MEAN_MOTION_DOT>-.3951E-4</MEAN_MOTION_DOT><MEAN_MOTION_DDOT>0</MEAN_MOTION_DDOT></tleParameters></data></segment></body></omm>
<omm id="CCSDS_OMM_VERS" version="2.0">
<header><CREATION_DATE/><ORIGINATOR/></header><body><segment><metadata><OBJECT_NAME>KUIPER-00103</OBJECT_NAME><OBJECT_ID>2025-171K</OBJECT_ID><CENTER_NAME>EARTH</CENTER_NAME><REF_FRAME>TEME</REF_FRAME><TIME_SYSTEM>UTC</TIME_SYSTEM><MEAN_ELEMENT_THEORY>SGP4</MEAN_ELEMENT_THEORY></metadata><data><meanElements><EPOCH>2025-12-30T06:38:45.139776</EPOCH><MEAN_MOTION>14.80000668</MEAN_MOTION><ECCENTRICITY>.00056429</ECCENTRICITY><INCLINATION>51.8990</INCLINATION><RA_OF_ASC_NODE>117.5194</RA_OF_ASC_NODE><ARG_OF_PERICENTER>259.0074</ARG_OF_PERICENTER><MEAN_ANOMALY>101.0254</MEAN_ANOMALY></meanElements><tleParameters><EPHEMERIS_TYPE>0</EPHEMERIS_TYPE><CLASSIFICATION_TYPE>U</CLASSIFICATION_TYPE><NORAD_CAT_ID>65141</NORAD_CAT_ID><ELEMENT_SET_NO>999</ELEMENT_SET_NO><REV_AT_EPOCH>2243</REV_AT_EPOCH><BSTAR>.11216956E-2</BSTAR><MEAN_MOTION_DOT>.8355E-4</MEAN_MOTION_DOT><MEAN_MOTION_DDOT>0</MEAN_MOTION_DDOT></tleParameters></data></segment></body></omm>

</ndm>
